S-NET D                 
1 43186U 18014G   26164.70123738  .00005261  00000+0  27216-3 0  9990
2 43186  97.5371  69.5139 0009271  40.9348 319.2580 15.16642878458234
S-NET B                 
1 43187U 18014H   26164.97653461  .00004850  00000+0  25133-3 0  9990
2 43187  97.5378  69.7741 0009764  35.3366 324.8512 15.16615698458279
S-NET A                 
1 43188U 18014J   26164.70013378  .00005299  00000+0  27401-3 0  9997
2 43188  97.5389  69.7072 0009659  37.1264 323.0635 15.16650574458234
S-NET C                 
1 43189U 18014K   26164.98039433  .00004941  00000+0  25598-3 0  9996
2 43189  97.5404  70.0602 0010814  28.2612 331.9206 15.16608046456822
PAZ                     
1 43215U 18020A   26165.20880211  .00001598  00000+0  79274-4 0  9993
2 43215  97.4453 172.6370 0001698  86.0237 274.1192 15.19143289460554
GOES 17                 
1 43226U 18022A   26165.17194236 -.00000174  00000+0  00000+0 0  9994
2 43226   0.9295  85.7633 0000409  32.5899 116.5253  1.00270168 30398
LKW-4                   
1 43236U 18025A   26165.19679686  .00043571  00000+0  49807-3 0  9996
2 43236  97.6334 335.8366 0001802 306.0688  54.0402 15.62056487459566
ZHUHAI-1 OVS-02         
1 43440U 18040B   26165.21318025  .00007021  00000+0  28407-3 0  9993
2 43440  97.0383 182.6190 0001535 257.2851 102.8216 15.24989623452266
ZHUHAI-1 OHS-02         
1 43441U 18040C   26165.13435036  .00008639  00000+0  33985-3 0  9990
2 43441  97.0368 189.4814 0007758 232.6281 127.4253 15.25843322113810
GAOFEN-6                
1 43484U 18048A   26165.22504096  .00000847  00000+0  12839-3 0  9996
2 43484  97.8552 228.0476 0011629 176.9934 183.1348 14.76596225432956
LUOJIA-1 01             
1 43485U 18048B   26165.21399848  .00002144  00000+0  24368-3 0  9995
2 43485  97.8109 243.4490 0010087 126.4196 233.7952 14.87274530433777
PAKTES 1A               
1 43529U 18056A   26165.20129182  .00001055  00000+0  91849-4 0  9993
2 43529  98.1298 321.5606 0022242 115.4405 244.9122 14.99095148431470
PRSS-1                  
1 43530U 18056B   26165.15154050  .00001214  00000+0  15952-3 0  9998
2 43530  97.7827 233.1049 0001663  77.0439 283.0960 14.81985612427988
HAIYANG-1C              
1 43609U 18068A   26165.17530796  .00000165  00000+0  74251-4 0  9997
2 43609  98.5197 237.5266 0012069 102.2831 257.9706 14.34178331406651
SSTL S1-4               
1 43618U 18071A   26165.21251329  .00001054  00000+0  98392-4 0  9998
2 43618  97.5048  36.9520 0001471  98.0259 262.1129 14.96181302422497
HAIYANG-2B              
1 43655U 18081A   26165.18891684  .00000286  00000+0  32175-3 0  9992
2 43655  99.3282 173.9903 0000561   9.0853 351.0309 13.79307366384514
CFOSAT                  
1 43662U 18083A   26165.19027727  .00003008  00000+0  15838-3 0  9994
2 43662  97.3601 169.8093 0002425  93.2528 266.8982 15.16357797421983
TEN-KOH                 
1 43677U 18084G   26165.06112303  .00002220  00000+0  17004-3 0  9994
2 43677  98.0775 357.2931 0011273 123.3486 236.8818 15.02932838415698
DIWATA-2B               
1 43678U 18084H   26165.16891255  .00002535  00000+0  20647-3 0  9992
2 43678  98.1178   1.2463 0012301 179.9553 180.1673 15.00439470415768
STARS-AO                
1 43679U 18084J   26165.10540527  .00005853  00000+0  29976-3 0  9990
2 43679  98.0503  18.8873 0002707 143.4938 216.6479 15.17023109417005
AUTCUBE 2               
1 43681U 18084K   26165.11603691  .00004354  00000+0  27152-3 0  9995
2 43681  98.0712  11.1282 0010124  58.5909 301.6308 15.10073338416463
METOP-C                 
1 43689U 18087A   26165.18216293  .00000098  00000+0  64437-4 0  9990
2 43689  98.6645 224.8406 0001657 132.9652 227.1664 14.21511359394403
ES'HAIL 2               
1 43700U 18090A   26165.12351647  .00000153  00000+0  00000+0 0  9998
2 43700   0.0151   6.1275 0001525 117.1684 209.3955  1.00269053 27643
MOHAMMED VI-B           
1 43717U 18095A   26165.19628751  .00000470  00000+0  73713-4 0  9999
2 43717  97.9562 237.5624 0001265  96.0294 264.1061 14.77113870407746
HYSIS                   
1 43719U 18096A   26165.16632405  .00001297  00000+0  18388-3 0  9994
2 43719  97.9847 231.9381 0001904 110.0454 250.0962 14.78691704406973
COSMOS 2530 (RODNIK-S *)
1 43751U 18097A   26165.15684380  .00000113  00000+0  74534-3 0  9990
2 43751  82.5149 224.1608 0020301  46.0373 314.2377 12.42881284341918
COSMOS 2531 (RODNIK-S *)
1 43752U 18097B   26165.17919470  .00000048  00000+0  27249-3 0  9992
2 43752  82.5194 225.2044 0017785  64.5617 295.7301 12.42912623341937
COSMOS 2532 (RODNIK-S *)
1 43753U 18097C   26165.20746315  .00000100  00000+0  65020-3 0  9991
2 43753  82.5138 223.9742 0019188  66.3014 294.0076 12.42909777341900
MINXSS-2                
1 43758U 18099A   26165.05127242  .00034951  00000+0  69858-3 0  9997
2 43758  97.4547 241.2439 0006447 268.3563  91.6948 15.46704865413645
SIRION PATHFINDER-2     
1 43759U 18099B   26165.07652565  .00005164  00000+0  28364-3 0  9992
2 43759  97.4257 214.2077 0007431 317.9791  42.0871 15.14524392412150
