OBJECT_NAME,OBJECT_ID,EPOCH,MEAN_MOTION,ECCENTRICITY,INCLINATION,RA_OF_ASC_NODE,ARG_OF_PERICENTER,MEAN_ANOMALY,EPHEMERIS_TYPE,CLASSIFICATION_TYPE,NORAD_CAT_ID,ELEMENT_SET_NO,REV_AT_EPOCH,BSTAR,MEAN_MOTION_DOT,MEAN_MOTION_DDOT
S-NET D,2018-014G,2026-06-13T16:49:46.909632,15.16642878,.00092713,97.5371,69.5139,40.9348,319.2580,0,U,43186,999,45823,.27216473E-3,.5261E-4,0
S-NET B,2018-014H,2026-06-13T23:26:12.590304,15.16615698,.0009764,97.5378,69.7741,35.3366,324.8512,0,U,43187,999,45827,.25133E-3,.485E-4,0
S-NET A,2018-014J,2026-06-13T16:48:11.558592,15.16650574,.00096599,97.5389,69.7072,37.1264,323.0635,0,U,43188,999,45823,.27401463E-3,.5299E-4,0
S-NET C,2018-014K,2026-06-13T23:31:46.070112,15.16608046,.0010814,97.5404,70.0602,28.2612,331.9206,0,U,43189,999,45682,.25598E-3,.4941E-4,0
PAZ,2018-020A,2026-06-14T05:00:40.502304,15.19143289,.0001698,97.4453,172.6370,86.0237,274.1192,0,U,43215,999,46055,.79274E-4,.1598E-4,0
GOES 17,2018-022A,2026-06-14T04:07:35.819904,1.00270168,.0000409,0.9295,85.7633,32.5899,116.5253,0,U,43226,999,3039,0,-.174E-5,0
LKW-4,2018-025A,2026-06-14T04:43:23.248704,15.62056487,.0001802,97.6334,335.8366,306.0688,54.0402,0,U,43236,999,45956,.49807E-3,.43571E-3,0
ZHUHAI-1 OVS-02,2018-040B,2026-06-14T05:06:58.773600,15.24989623,.0001535,97.0383,182.6190,257.2851,102.8216,0,U,43440,999,45226,.28407E-3,.7021E-4,0
ZHUHAI-1 OHS-02,2018-040C,2026-06-14T03:13:27.871104,15.25843322,.0007758,97.0368,189.4814,232.6281,127.4253,0,U,43441,999,11381,.33985E-3,.8639E-4,0
GAOFEN-6,2018-048A,2026-06-14T05:24:03.538944,14.76596225,.0011629,97.8552,228.0476,176.9934,183.1348,0,U,43484,999,43295,.12839E-3,.847E-5,0
LUOJIA-1 01,2018-048B,2026-06-14T05:08:09.468672,14.87274530,.0010087,97.8109,243.4490,126.4196,233.7952,0,U,43485,999,43377,.24368E-3,.2144E-4,0
PAKTES 1A,2018-056A,2026-06-14T04:49:51.613248,14.99095148,.0022242,98.1298,321.5606,115.4405,244.9122,0,U,43529,999,43147,.91849E-4,.1055E-4,0
PRSS-1,2018-056B,2026-06-14T03:38:13.099200,14.81985612,.0001663,97.7827,233.1049,77.0439,283.0960,0,U,43530,999,42798,.15952E-3,.1214E-4,0
HAIYANG-1C,2018-068A,2026-06-14T04:12:26.607744,14.34178331,.0012069,98.5197,237.5266,102.2831,257.9706,0,U,43609,999,40665,.74251E-4,.165E-5,0
SSTL S1-4,2018-071A,2026-06-14T05:06:01.148256,14.96181302,.0001471,97.5048,36.9520,98.0259,262.1129,0,U,43618,999,42249,.98392E-4,.1054E-4,0
HAIYANG-2B,2018-081A,2026-06-14T04:32:02.414976,13.79307366,.0000561,99.3282,173.9903,9.0853,351.0309,0,U,43655,999,38451,.32175E-3,.286E-5,0
CFOSAT,2018-083A,2026-06-14T04:33:59.956128,15.16357797,.0002425,97.3601,169.8093,93.2528,266.8982,0,U,43662,999,42198,.15838E-3,.3008E-4,0
TEN-KOH,2018-084G,2026-06-14T01:28:01.029792,15.02932838,.0011273,98.0775,357.2931,123.3486,236.8818,0,U,43677,999,41569,.17004E-3,.222E-4,0
DIWATA-2B,2018-084H,2026-06-14T04:03:14.044320,15.00439470,.0012301,98.1178,1.2463,179.9553,180.1673,0,U,43678,999,41576,.20647E-3,.2535E-4,0
STARS-AO,2018-084J,2026-06-14T02:31:47.015328,15.17023109,.0002707,98.0503,18.8873,143.4938,216.6479,0,U,43679,999,41700,.29976E-3,.5853E-4,0
AUTCUBE 2,2018-084K,2026-06-14T02:47:05.589024,15.10073338,.0010124,98.0712,11.1282,58.5909,301.6308,0,U,43681,999,41646,.27152E-3,.4354E-4,0
METOP-C,2018-087A,2026-06-14T04:22:18.877152,14.21511359,.0001657,98.6645,224.8406,132.9652,227.1664,0,U,43689,999,39440,.64437E-4,.98E-6,0
ES'HAIL 2,2018-090A,2026-06-14T02:57:51.823008,1.00269053,.0001525,0.0151,6.1275,117.1684,209.3955,0,U,43700,999,2764,0,.153E-5,0
MOHAMMED VI-B,2018-095A,2026-06-14T04:42:39.240864,14.77113870,.0001265,97.9562,237.5624,96.0294,264.1061,0,U,43717,999,40774,.73713E-4,.47E-5,0
HYSIS,2018-096A,2026-06-14T03:59:30.397920,14.78691704,.0001904,97.9847,231.9381,110.0454,250.0962,0,U,43719,999,40697,.18388E-3,.1297E-4,0
COSMOS 2530 (RODNIK-S 16),2018-097A,2026-06-14T03:45:51.304320,12.42881284,.0020301,82.5149,224.1608,46.0373,314.2377,0,U,43751,999,34191,.74534E-3,.113E-5,0
COSMOS 2531 (RODNIK-S 17),2018-097B,2026-06-14T04:18:02.422080,12.42912623,.0017785,82.5194,225.2044,64.5617,295.7301,0,U,43752,999,34193,.27249E-3,.48E-6,0
COSMOS 2532 (RODNIK-S 18),2018-097C,2026-06-14T04:58:44.816160,12.42909777,.0019188,82.5138,223.9742,66.3014,294.0076,0,U,43753,999,34190,.6502E-3,.1E-5,0
MINXSS-2,2018-099A,2026-06-14T01:13:49.937088,15.46704865,.0006447,97.4547,241.2439,268.3563,91.6948,0,U,43758,999,41364,.69858E-3,.34951E-3,0
SIRION PATHFINDER-2,2018-099B,2026-06-14T01:50:11.816160,15.14524392,.0007431,97.4257,214.2077,317.9791,42.0871,0,U,43759,999,41215,.28364E-3,.5164E-4,0
